[{"OBJECT_NAME":"STARLINK-6204","OBJECT_ID":"2023-064AS","EPOCH":"2026-03-09T12:19:31.298880","MEAN_MOTION":14.98347279,"ECCENTRICITY":0.00031591,"INCLINATION":70.0002,"RA_OF_ASC_NODE":105.0059,"ARG_OF_PERICENTER":272.6146,"MEAN_ANOMALY":87.4651,"EPHEMERIS_TYPE":0,"CLASSIFICATION_TYPE":"U","NORAD_CAT_ID":56488,"ELEMENT_SET_NO":999,"REV_AT_EPOCH":15620,"BSTAR":0.00020050441,"MEAN_MOTION_DOT":2.301e-5,"MEAN_MOTION_DDOT":0},{"OBJECT_NAME":"COSMOS 2228","OBJECT_ID":"1992-094A","EPOCH":"2026-03-09T22:06:22.986432","MEAN_MOTION":14.97191104,"ECCENTRICITY":0.00167811,"INCLINATION":82.5157,"RA_OF_ASC_NODE":237.0886,"ARG_OF_PERICENTER":303.9293,"MEAN_ANOMALY":56.0333,"EPHEMERIS_TYPE":0,"CLASSIFICATION_TYPE":"U","NORAD_CAT_ID":22286,"ELEMENT_SET_NO":999,"REV_AT_EPOCH":77609,"BSTAR":0.0002463535,"MEAN_MOTION_DOT":2.881e-5,"MEAN_MOTION_DDOT":0}]
